[{"OBJECT_NAME":"STARLINK-31013","OBJECT_ID":"2023-191U","EPOCH":"2026-03-09T10:31:58.982304","MEAN_MOTION":15.05312624,"ECCENTRICITY":9.596e-5,"INCLINATION":43.0005,"RA_OF_ASC_NODE":106.4881,"ARG_OF_PERICENTER":8.2742,"MEAN_ANOMALY":351.8118,"EPHEMERIS_TYPE":0,"CLASSIFICATION_TYPE":"U","NORAD_CAT_ID":58526,"ELEMENT_SET_NO":999,"REV_AT_EPOCH":12541,"BSTAR":0.0019974711,"MEAN_MOTION_DOT":0.00028971,"MEAN_MOTION_DDOT":0},{"OBJECT_NAME":"DISKSAT C","OBJECT_ID":"2025-305A","EPOCH":"2026-03-09T19:16:32.318976","MEAN_MOTION":15.07852977,"ECCENTRICITY":0.00045341,"INCLINATION":45.0017,"RA_OF_ASC_NODE":250.1278,"ARG_OF_PERICENTER":310.7706,"MEAN_ANOMALY":49.2776,"EPHEMERIS_TYPE":0,"CLASSIFICATION_TYPE":"U","NORAD_CAT_ID":67219,"ELEMENT_SET_NO":999,"REV_AT_EPOCH":1231,"BSTAR":0.00075564202,"MEAN_MOTION_DOT":0.00011541,"MEAN_MOTION_DDOT":0}]
